[{"OBJECT_NAME":"STARLINK-4102","OBJECT_ID":"2022-083M","EPOCH":"2026-03-09T13:48:26.876448","MEAN_MOTION":15.08835002,"ECCENTRICITY":0.0001384,"INCLINATION":53.2176,"RA_OF_ASC_NODE":174.6333,"ARG_OF_PERICENTER":99.2353,"MEAN_ANOMALY":260.8796,"EPHEMERIS_TYPE":0,"CLASSIFICATION_TYPE":"U","NORAD_CAT_ID":53143,"ELEMENT_SET_NO":999,"REV_AT_EPOCH":20120,"BSTAR":-2.9837e-5,"MEAN_MOTION_DOT":-7.63e-6,"MEAN_MOTION_DDOT":0},{"OBJECT_NAME":"ELECTRON KICK STAGE R\/B","OBJECT_ID":"2026-015D","EPOCH":"2026-03-09T15:02:18.646944","MEAN_MOTION":14.71860187,"ECCENTRICITY":0.0516686,"INCLINATION":89.0447,"RA_OF_ASC_NODE":277.927,"ARG_OF_PERICENTER":172.5816,"MEAN_ANOMALY":188.3451,"EPHEMERIS_TYPE":0,"CLASSIFICATION_TYPE":"U","NORAD_CAT_ID":67559,"ELEMENT_SET_NO":999,"REV_AT_EPOCH":678,"BSTAR":0.0016475,"MEAN_MOTION_DOT":0.00103651,"MEAN_MOTION_DDOT":8.2583e-7}]
